{
    "CCSDS_OMM_VERS": "3.0",
    "COMMENT": "GENERATED VIA SPACE-TRACK.ORG API",
    "CREATION_DATE": "2025-05-22T17:14:14",
    "ORIGINATOR": "18 SPCS",
    "OBJECT_NAME": "COSMOS 2564 (GLONASS)",
    "OBJECT_ID": "2022-161A",
    "CENTER_NAME": "EARTH",
    "REF_FRAME": "TEME",
    "TIME_SYSTEM": "UTC",
    "MEAN_ELEMENT_THEORY": "SGP4",
    "EPOCH": "2025-05-22T08:20:46.458816",
    "MEAN_MOTION": "2.13102032",
    "ECCENTRICITY": "0.00111490",
    "INCLINATION": "64.7366",
    "RA_OF_ASC_NODE": "205.6885",
    "ARG_OF_PERICENTER": "222.0956",
    "MEAN_ANOMALY": "137.8919",
    "EPHEMERIS_TYPE": "0",
    "CLASSIFICATION_TYPE": "U",
    "NORAD_CAT_ID": "54377",
    "ELEMENT_SET_NO": "999",
    "REV_AT_EPOCH": "1930",
    "BSTAR": "0.00000000000000",
    "MEAN_MOTION_DOT": "0.00000054",
    "MEAN_MOTION_DDOT": "0.0000000000000",
    "SEMIMAJOR_AXIS": "25508.022",
    "PERIOD": "675.733",
    "APOAPSIS": "19158.326",
    "PERIAPSIS": "19101.448",
    "OBJECT_TYPE": "PAYLOAD",
    "RCS_SIZE": "LARGE",
    "COUNTRY_CODE": "CIS",
    "LAUNCH_DATE": "2022-11-28",
    "SITE": "PKMTR",
    "DECAY_DATE": null,
    "FILE": "4736220",
    "GP_ID": "288150217",
    "TLE_LINE0": "0 COSMOS 2564 (GLONASS)",
    "TLE_LINE1": "1 54377U 22161A   25142.34775994  .00000054  00000-0  00000-0 0  9999",
    "TLE_LINE2": "2 54377  64.7366 205.6885 0011149 222.0956 137.8919  2.13102032 19301"
}